[{"OBJECT_NAME":"STARLINK-35826","OBJECT_ID":"2025-254AD","EPOCH":"2026-03-09T16:12:26.707104","MEAN_MOTION":15.30208755,"ECCENTRICITY":0.00012663,"INCLINATION":53.1567,"RA_OF_ASC_NODE":229.6175,"ARG_OF_PERICENTER":46.2472,"MEAN_ANOMALY":313.8633,"EPHEMERIS_TYPE":0,"CLASSIFICATION_TYPE":"U","NORAD_CAT_ID":66375,"ELEMENT_SET_NO":999,"REV_AT_EPOCH":1901,"BSTAR":0.00043874153,"MEAN_MOTION_DOT":0.00012661,"MEAN_MOTION_DDOT":0},{"OBJECT_NAME":"SPACEMOBILE-005 DEB","OBJECT_ID":"2024-163K","EPOCH":"2026-03-09T07:33:15.902496","MEAN_MOTION":15.31481997,"ECCENTRICITY":0.00072885,"INCLINATION":52.9762,"RA_OF_ASC_NODE":31.7924,"ARG_OF_PERICENTER":175.8731,"MEAN_ANOMALY":184.2329,"EPHEMERIS_TYPE":0,"CLASSIFICATION_TYPE":"U","NORAD_CAT_ID":62373,"ELEMENT_SET_NO":999,"REV_AT_EPOCH":8280,"BSTAR":0.00063853778,"MEAN_MOTION_DOT":0.00019381,"MEAN_MOTION_DDOT":0}]
